OBJECT_NAME,OBJECT_ID,EPOCH,MEAN_MOTION,ECCENTRICITY,INCLINATION,RA_OF_ASC_NODE,ARG_OF_PERICENTER,MEAN_ANOMALY,EPHEMERIS_TYPE,CLASSIFICATION_TYPE,NORAD_CAT_ID,ELEMENT_SET_NO,REV_AT_EPOCH,BSTAR,MEAN_MOTION_DOT,MEAN_MOTION_DDOT
QIANFAN-175,2026-124L,2026-06-20T11:23:22.652736,14.21339841,.0003669,88.9983,1.6597,160.1847,199.9487,0,U,69392,999,228,.33953E-4,.89E-6,0
QIANFAN-176,2026-124M,2026-06-20T11:19:26.133600,14.21841160,.0002609,88.9983,1.6593,161.9704,198.1580,0,U,69393,999,228,.32077E-4,.85E-6,0
QIANFAN-177,2026-124N,2026-06-20T11:13:54.130368,14.22730564,.0003879,88.9983,1.6587,137.6601,222.4890,0,U,69394,999,228,.22466E-4,.65E-6,0
QIANFAN-178,2026-124P,2026-06-20T11:16:19.335072,14.22274602,.0003089,88.9983,1.6589,146.3393,213.7995,0,U,69395,999,228,.11053E-3,.26E-5,0
QIANFAN-179,2026-124Q,2026-06-20T11:10:40.192608,14.23097209,.0003138,88.9983,1.6583,141.9687,218.1726,0,U,69396,999,228,.22854E-4,.66E-6,0
QIANFAN-180,2026-124R,2026-06-20T11:08:24.972288,14.23618729,.000333,88.9983,1.6582,154.3492,205.7866,0,U,69397,999,228,.22696E-4,.66E-6,0
QIANFAN-181,2026-124S,2026-06-20T07:00:27.910944,14.16649438,.0002648,88.9983,1.6881,109.7220,250.4254,0,U,69398,999,225,.29705E-4,.74E-6,0
QIANFAN-182,2026-124T,2026-06-20T10:03:55.709856,14.18738574,.0002631,88.9984,1.6701,133.1406,227.0003,0,U,69399,999,227,.33241E-4,.83E-6,0
QIANFAN-183,2026-125A,2026-06-20T05:39:22.554144,14.13053743,.0013305,88.9952,280.0998,162.8418,197.3221,0,U,69401,999,213,-.11695E+1,-.2022735E-1,0
QIANFAN-184,2026-125B,2026-06-20T03:48:51.920064,14.11639509,.0020816,88.9945,280.1128,159.8124,200.3890,0,U,69402,999,212,-.11515463E+1,-.1948538E-1,0
QIANFAN-185,2026-125C,2026-06-19T19:20:32.899776,14.11744531,.00206203,88.9950,280.1526,152.1571,208.0723,0,U,69403,999,207,-.10872817E+1,-.1850064E-1,0
QIANFAN-186,2026-125D,2026-06-19T17:32:24.623520,14.14978163,.0016523,88.9911,280.1598,183.2578,176.8505,0,U,69404,999,206,-.12050667E+1,-.2150127E-1,0
QIANFAN-187,2026-125E,2026-06-19T17:27:48.185856,14.16025362,.00176845,88.9950,280.1573,186.7116,173.3838,0,U,69405,999,206,-.11814077E+1,-.2149587E-1,0
QIANFAN-188,2026-125F,2026-06-19T19:02:09.276288,14.16598732,.0017376,88.9989,280.1491,182.4114,177.6993,0,U,69406,999,207,-.11264107E+1,-.207705E-1,0
QIANFAN-189,2026-125G,2026-06-19T17:19:35.025888,14.14417547,.00149802,88.9947,280.1586,167.6028,192.5531,0,U,69407,999,206,-.10384278E+1,-.1853945E-1,0
QIANFAN-190,2026-125H,2026-06-19T22:23:29.648256,14.16273042,.00174385,88.9967,280.1343,185.5805,174.5192,0,U,69408,999,209,-.11418107E+1,-.2091624E-1,0
QIANFAN-191,2026-125J,2026-06-19T17:10:22.344960,14.15407399,.00124435,88.9947,280.1576,170.0084,190.1353,0,U,69409,999,206,-.99941962E+0,-.1819046E-1,0
QIANFAN-192,2026-125K,2026-06-20T04:56:31.701408,14.15802162,.0012663,88.9949,280.1013,156.7497,203.4267,0,U,69410,999,213,-.94715E+0,-.1722977E-1,0
QIANFAN-193,2026-125L,2026-06-20T04:51:44.187264,14.15759213,.00167301,88.9948,280.1006,173.7424,186.3976,0,U,69411,999,213,-.94875524E+0,-.1725353E-1,0
QIANFAN-194,2026-125M,2026-06-19T18:40:34.354560,14.16835506,.00123642,88.9947,280.1486,186.3713,173.7320,0,U,69412,999,206,-.96674698E+0,-.1787424E-1,0
QIANFAN-195,2026-125N,2026-06-19T18:39:45.471168,14.18838348,.00148432,88.9935,280.1519,185.9073,174.1944,0,U,69413,999,207,-.10715046E+1,-.206044E-1,0
QIANFAN-196,2026-125P,2026-06-20T09:46:50.776896,14.17746327,.0014385,88.9949,280.0754,184.6406,175.4652,0,U,69414,999,216,-.93611E+0,-.1762764E-1,0
QIANFAN-197,2026-125Q,2026-06-19T18:34:12.311040,14.18379903,.00090014,88.9949,280.1479,172.9343,187.1975,0,U,69415,999,206,-.10034247E+1,-.1921916E-1,0
QIANFAN-198,2026-125R,2026-06-19T18:35:06.600480,14.17990071,.00090533,88.9948,280.1483,170.9232,189.2123,0,U,69416,999,207,-.99689647E+0,-.1897356E-1,0
QIANFAN-199,2026-125S,2026-06-19T18:30:59.600160,14.19732489,.00146954,88.9945,280.1474,175.6046,184.5276,0,U,69417,999,207,-.97994831E+0,-.1926055E-1,0
QIANFAN-200,2026-125T,2026-06-19T20:35:36.024576,14.15539357,.00145643,88.9946,280.1421,173.5980,186.5397,0,U,69418,999,208,-.1040158E+1,-.1893052E-1,0
STARLINK-37537,2026-126A,2026-06-19T20:12:09.274464,15.75218056,.00011143,97.2831,30.9483,91.7906,268.3487,0,U,69420,999,316,.12196822E-2,.186036E-2,0
STARLINK-37585,2026-126B,2026-06-20T08:08:45.137184,15.75225886,.0001369,97.2850,31.4972,91.1012,269.0410,0,U,69421,999,324,.13153E-2,.201057E-2,0
